{"fetched_at":"2026-07-18T17:29:27.823Z","source":"https://celestrak.org/NORAD/elements/gp.php?GROUP=iridium-NEXT&FORMAT=JSON","constellation":"iridium","records":[{"OBJECT_NAME":"IRIDIUM 126","OBJECT_ID":"2017-039G","EPOCH":"2026-07-17T21:59:50.939520","CLASSIFICATION_TYPE":"U","MEAN_MOTION":14.34217552,"ECCENTRICITY":0.00019744,"INCLINATION":86.3991,"RA_OF_ASC_NODE":340.799,"ARG_OF_PERICENTER":92.7455,"MEAN_ANOMALY":267.3967,"EPHEMERIS_TYPE":0,"NORAD_CAT_ID":42809,"ELEMENT_SET_NO":999,"REV_AT_EPOCH":47435,"BSTAR":-0.000002598414,"MEAN_MOTION_DOT":1.3e-7,"MEAN_MOTION_DDOT":0},{"OBJECT_NAME":"IRIDIUM 124","OBJECT_ID":"2017-039H","EPOCH":"2026-07-18T04:21:57.484512","CLASSIFICATION_TYPE":"U","MEAN_MOTION":14.43274942,"ECCENTRICITY":0.00022502,"INCLINATION":86.448,"RA_OF_ASC_NODE":277.3999,"ARG_OF_PERICENTER":97.0341,"MEAN_ANOMALY":263.1115,"EPHEMERIS_TYPE":0,"NORAD_CAT_ID":42810,"ELEMENT_SET_NO":999,"REV_AT_EPOCH":47958,"BSTAR":0.000046656798,"MEAN_MOTION_DOT":0.00000177,"MEAN_MOTION_DDOT":0},{"OBJECT_NAME":"IRIDIUM 128","OBJECT_ID":"2017-039J","EPOCH":"2026-07-17T23:26:58.989696","CLASSIFICATION_TYPE":"U","MEAN_MOTION":14.34217469,"ECCENTRICITY":0.00022752,"INCLINATION":86.3968,"RA_OF_ASC_NODE":12.2735,"ARG_OF_PERICENTER":94.029,"MEAN_ANOMALY":266.1166,"EPHEMERIS_TYPE":0,"NORAD_CAT_ID":42811,"ELEMENT_SET_NO":999,"REV_AT_EPOCH":47439,"BSTAR":0.00002125585,"MEAN_MOTION_DOT":7.9e-7,"MEAN_MOTION_DDOT":0},{"OBJECT_NAME":"IRIDIUM 121","OBJECT_ID":"2017-039K","EPOCH":"2026-07-18T01:48:10.970208","CLASSIFICATION_TYPE":"U","MEAN_MOTION":14.34217651,"ECCENTRICITY":0.00022312,"INCLINATION":86.3996,"RA_OF_ASC_NODE":340.7604,"ARG_OF_PERICENTER":92.747,"MEAN_ANOMALY":267.3981,"EPHEMERIS_TYPE":0,"NORAD_CAT_ID":42812,"ELEMENT_SET_NO":999,"REV_AT_EPOCH":47425,"BSTAR":0.000004526831,"MEAN_MOTION_DOT":3.2e-7,"MEAN_MOTION_DDOT":0},{"OBJECT_NAME":"IRIDIUM 133","OBJECT_ID":"2017-061A","EPOCH":"2026-07-18T00:12:38.788992","CLASSIFICATION_TYPE":"U","MEAN_MOTION":14.34217686,"ECCENTRICITY":0.00022119,"INCLINATION":86.3971,"RA_OF_ASC_NODE":12.3788,"ARG_OF_PERICENTER":91.5551,"MEAN_ANOMALY":268.5898,"EPHEMERIS_TYPE":0,"NORAD_CAT_ID":42955,"ELEMENT_SET_NO":999,"REV_AT_EPOCH":45919,"BSTAR":0.000018531609,"MEAN_MOTION_DOT":7.2e-7,"MEAN_MOTION_DDOT":0},{"OBJECT_NAME":"IRIDIUM 100","OBJECT_ID":"2017-061B","EPOCH":"2026-07-18T00:03:30.891168","CLASSIFICATION_TYPE":"U","MEAN_MOTION":14.34217833,"ECCENTRICITY":0.00022209,"INCLINATION":86.3969,"RA_OF_ASC_NODE":12.2992,"ARG_OF_PERICENTER":90.2423,"MEAN_ANOMALY":269.9027,"EPHEMERIS_TYPE":0,"NORAD_CAT_ID":42956,"ELEMENT_SET_NO":999,"REV_AT_EPOCH":45919,"BSTAR":0.000020430309,"MEAN_MOTION_DOT":7.7e-7,"MEAN_MOTION_DDOT":0},{"OBJECT_NAME":"IRIDIUM 122","OBJECT_ID":"2017-061C","EPOCH":"2026-07-17T23:17:50.603712","CLASSIFICATION_TYPE":"U","MEAN_MOTION":14.34216418,"ECCENTRICITY":0.00021235,"INCLINATION":86.397,"RA_OF_ASC_NODE":12.3127,"ARG_OF_PERICENTER":91.1563,"MEAN_ANOMALY":268.9876,"EPHEMERIS_TYPE":0,"NORAD_CAT_ID":42957,"ELEMENT_SET_NO":999,"REV_AT_EPOCH":45919,"BSTAR":0.00000964989,"MEAN_MOTION_DOT":4.7e-7,"MEAN_MOTION_DDOT":0},{"OBJECT_NAME":"IRIDIUM 129","OBJECT_ID":"2017-061D","EPOCH":"2026-07-17T22:13:54.657984","CLASSIFICATION_TYPE":"U","MEAN_MOTION":14.34217434,"ECCENTRICITY":0.0002098,"INCLINATION":86.397,"RA_OF_ASC_NODE":12.3988,"ARG_OF_PERICENTER":83.867,"MEAN_ANOMALY":276.2765,"EPHEMERIS_TYPE":0,"NORAD_CAT_ID":42958,"ELEMENT_SET_NO":999,"REV_AT_EPOCH":45920,"BSTAR":0.000014020019,"MEAN_MOTION_DOT":5.9e-7,"MEAN_MOTION_DDOT":0},{"OBJECT_NAME":"IRIDIUM 119","OBJECT_ID":"2017-061E","EPOCH":"2026-07-18T00:49:10.959168","CLASSIFICATION_TYPE":"U","MEAN_MOTION":14.34217346,"ECCENTRICITY":0.00021147,"INCLINATION":86.397,"RA_OF_ASC_NODE":12.3494,"ARG_OF_PERICENTER":91.4855,"MEAN_ANOMALY":268.6583,"EPHEMERIS_TYPE":0,"NORAD_CAT_ID":42959,"ELEMENT_SET_NO":999,"REV_AT_EPOCH":45923,"BSTAR":0.000021677729,"MEAN_MOTION_DOT":8e-7,"MEAN_MOTION_DDOT":0},{"OBJECT_NAME":"IRIDIUM 107","OBJECT_ID":"2017-061F","EPOCH":"2026-07-17T23:36:06.699168","CLASSIFICATION_TYPE":"U","MEAN_MOTION":14.34217552,"ECCENTRICITY":0.00021382,"INCLINATION":86.397,"RA_OF_ASC_NODE":12.3922,"ARG_OF_PERICENTER":97.2632,"MEAN_ANOMALY":262.8807,"EPHEMERIS_TYPE":0,"NORAD_CAT_ID":42960,"ELEMENT_SET_NO":999,"REV_AT_EPOCH":45923,"BSTAR":0.000011689097,"MEAN_MOTION_DOT":5.3e-7,"MEAN_MOTION_DDOT":0},{"OBJECT_NAME":"IRIDIUM 132","OBJECT_ID":"2017-061G","EPOCH":"2026-07-18T04:46:38.893728","CLASSIFICATION_TYPE":"U","MEAN_MOTION":14.34217318,"ECCENTRICITY":0.00021896,"INCLINATION":86.397,"RA_OF_ASC_NODE":12.2813,"ARG_OF_PERICENTER":90.9739,"MEAN_ANOMALY":269.1707,"EPHEMERIS_TYPE":0,"NORAD_CAT_ID":42961,"ELEMENT_SET_NO":999,"REV_AT_EPOCH":45926,"BSTAR":0.000023884757,"MEAN_MOTION_DOT":8.7e-7,"MEAN_MOTION_DDOT":0},{"OBJECT_NAME":"IRIDIUM 136","OBJECT_ID":"2017-061H","EPOCH":"2026-07-18T05:32:18.874464","CLASSIFICATION_TYPE":"U","MEAN_MOTION":14.34217928,"ECCENTRICITY":0.00022578,"INCLINATION":86.397,"RA_OF_ASC_NODE":12.2749,"ARG_OF_PERICENTER":90.4946,"MEAN_ANOMALY":269.6509,"EPHEMERIS_TYPE":0,"NORAD_CAT_ID":42962,"ELEMENT_SET_NO":999,"REV_AT_EPOCH":45928,"BSTAR":0.000026653931,"MEAN_MOTION_DOT":9.4e-7,"MEAN_MOTION_DDOT":0},{"OBJECT_NAME":"IRIDIUM 139","OBJECT_ID":"2017-061J","EPOCH":"2026-07-18T00:40:02.959392","CLASSIFICATION_TYPE":"U","MEAN_MOTION":14.34217823,"ECCENTRICITY":0.00022609,"INCLINATION":86.3971,"RA_OF_ASC_NODE":12.4221,"ARG_OF_PERICENTER":92.3189,"MEAN_ANOMALY":267.8266,"EPHEMERIS_TYPE":0,"NORAD_CAT_ID":42963,"ELEMENT_SET_NO":999,"REV_AT_EPOCH":45926,"BSTAR":0.00002538684,"MEAN_MOTION_DOT":9.1e-7,"MEAN_MOTION_DDOT":0},{"OBJECT_NAME":"IRIDIUM 125","OBJECT_ID":"2017-061K","EPOCH":"2026-07-18T05:23:10.854816","CLASSIFICATION_TYPE":"U","MEAN_MOTION":14.3421811,"ECCENTRICITY":0.00017021,"INCLINATION":86.3973,"RA_OF_ASC_NODE":12.4016,"ARG_OF_PERICENTER":96.8055,"MEAN_ANOMALY":263.3334,"EPHEMERIS_TYPE":0,"NORAD_CAT_ID":42964,"ELEMENT_SET_NO":999,"REV_AT_EPOCH":45930,"BSTAR":0.000024303391,"MEAN_MOTION_DOT":8.8e-7,"MEAN_MOTION_DDOT":0},{"OBJECT_NAME":"IRIDIUM 135","OBJECT_ID":"2017-083A","EPOCH":"2026-07-18T06:26:23.152128","CLASSIFICATION_TYPE":"U","MEAN_MOTION":14.34217823,"ECCENTRICITY":0.00021097,"INCLINATION":86.3983,"RA_OF_ASC_NODE":309.0236,"ARG_OF_PERICENTER":95.3955,"MEAN_ANOMALY":264.7482,"EPHEMERIS_TYPE":0,"NORAD_CAT_ID":43070,"ELEMENT_SET_NO":999,"REV_AT_EPOCH":44860,"BSTAR":-0.000003281544,"MEAN_MOTION_DOT":1.1e-7,"MEAN_MOTION_DDOT":0},{"OBJECT_NAME":"IRIDIUM 138","OBJECT_ID":"2017-083B","EPOCH":"2026-07-18T07:02:54.977568","CLASSIFICATION_TYPE":"U","MEAN_MOTION":14.34213859,"ECCENTRICITY":0.00017628,"INCLINATION":86.4005,"RA_OF_ASC_NODE":308.7129,"ARG_OF_PERICENTER":102.702,"MEAN_ANOMALY":257.4373,"EPHEMERIS_TYPE":0,"NORAD_CAT_ID":43071,"ELEMENT_SET_NO":999,"REV_AT_EPOCH":44859,"BSTAR":0.000043471835,"MEAN_MOTION_DOT":0.00000142,"MEAN_MOTION_DDOT":0}]}
