IRIDIUM 126             
1 42809U 17039G   26198.91656180  .00000013  00000+0 -25984-5 0  9992
2 42809  86.3991 340.7990 0001974  92.7455 267.3967 14.34217552474353
IRIDIUM 124             
1 42810U 17039H   26199.18191533  .00000177  00000+0  46657-4 0  9999
2 42810  86.4480 277.3999 0002250  97.0341 263.1115 14.43274942479588
IRIDIUM 128             
1 42811U 17039J   26198.97707164  .00000079  00000+0  21256-4 0  9998
2 42811  86.3968  12.2735 0002275  94.0290 266.1166 14.34217469474394
IRIDIUM 121             
1 42812U 17039K   26199.07512697  .00000032  00000+0  45268-5 0  9995
2 42812  86.3996 340.7604 0002231  92.7470 267.3981 14.34217651474253
IRIDIUM 133             
1 42955U 17061A   26199.00878228  .00000072  00000+0  18532-4 0  9993
2 42955  86.3971  12.3788 0002211  91.5551 268.5898 14.34217686459198
IRIDIUM 100             
1 42956U 17061B   26199.00244087  .00000077  00000+0  20430-4 0  9999
2 42956  86.3969  12.2992 0002220  90.2423 269.9027 14.34217833459199
IRIDIUM 122             
1 42957U 17061C   26198.97072458  .00000047  00000+0  96499-5 0  9992
2 42957  86.3970  12.3127 0002123  91.1563 268.9876 14.34216418459199
IRIDIUM 129             
1 42958U 17061D   26198.92632706  .00000059  00000+0  14020-4 0  9998
2 42958  86.3970  12.3988 0002098  83.8670 276.2765 14.34217434459203
IRIDIUM 119             
1 42959U 17061E   26199.03415462  .00000080  00000+0  21678-4 0  9991
2 42959  86.3970  12.3494 0002114  91.4855 268.6583 14.34217346459233
IRIDIUM 107             
1 42960U 17061F   26198.98341087  .00000053  00000+0  11689-4 0  9998
2 42960  86.3970  12.3922 0002138  97.2632 262.8807 14.34217552459238
IRIDIUM 132             
1 42961U 17061G   26199.19906127  .00000087  00000+0  23885-4 0  9993
2 42961  86.3970  12.2813 0002189  90.9739 269.1707 14.34217318459263
IRIDIUM 136             
1 42962U 17061H   26199.23077401  .00000094  00000+0  26654-4 0  9998
2 42962  86.3970  12.2749 0002257  90.4946 269.6509 14.34217928459287
IRIDIUM 139             
1 42963U 17061J   26199.02781203  .00000091  00000+0  25387-4 0  9997
2 42963  86.3971  12.4221 0002260  92.3189 267.8266 14.34217823459262
IRIDIUM 125             
1 42964U 17061K   26199.22443119  .00000088  00000+0  24303-4 0  9994
2 42964  86.3973  12.4016 0001702  96.8055 263.3334 14.34218110459300
IRIDIUM 135             
1 43070U 17083A   26199.26832352  .00000011  00000+0 -32815-5 0  9997
2 43070  86.3983 309.0236 0002109  95.3955 264.7482 14.34217823448604
IRIDIUM 138             
1 43071U 17083B   26199.29369187  .00000142  00000+0  43472-4 0  9996
2 43071  86.4005 308.7129 0001762 102.7020 257.4373 14.34213859448599
